TIANQIN 1 (CAS-6)       
1 44879U 19093A   26068.97628376  .00003822  00000+0  35534-3 0  9991
2 44879  97.7823 153.5687 0011825  31.6640 328.5289 14.94890933337226
SATELIOT_2              
1 60534U 24149BU  26068.71101004  .00002267  00000+0  20754-3 0  9991
2 60534  97.6894 145.4857 0001884  85.8882 274.2555 14.95943652 85097
